GLOBALSTAR M084         
1 38040U 11080A   23331.42037186 -.00000067  00000+0  20338-3 0  9990
2 38040  52.0029 336.9652 0000124 145.6850   1.7707 12.62268320550964
GLOBALSTAR M080         
1 38041U 11080B   23331.22080508 -.00000074  00000+0  16427-3 0  9997
2 38041  52.0079 338.9796 0000295 165.0731 275.0683 12.62266674551065
GLOBALSTAR M082         
1 38042U 11080C   23332.10495170 -.00000097  00000+0  39048-4 0  9991
2 38042  52.0082 291.6726 0001212  39.6899  41.3971 12.62268266552052
GLOBALSTAR M092         
1 38043U 11080D   23331.45032900 -.00000078  00000+0  14552-3 0  9998
2 38043  52.0111  24.0098 0000240 183.5056 281.8663 12.62262928550258
GLOBALSTAR M090         
1 38044U 11080E   23332.05143837 -.00000091  00000+0  71131-4 0  9990
2 38044  51.9891 286.3737 0000908  52.5472  25.9213 12.62263861552036
GLOBALSTAR M086         
1 38045U 11080F   23332.07852997 -.00000091  00000+0  70791-4 0  9998
2 38045  51.9904 286.7998 0001189 109.3931 331.2523 12.62264793552041
GLOBALSTAR M097         
1 39072U 13005A   23331.92882146 -.00000057  00000+0  26231-3 0  9991
2 39072  52.0029 201.2264 0001342  80.5934 279.5084 12.62273017499252
GLOBALSTAR M093         
1 39073U 13005B   23331.90236583 -.00000063  00000+0  22551-3 0  9996
2 39073  51.9791 195.5181 0001589  85.1593 274.9455 12.62269355499122
